IRIDIUM 135             
1 43070U 17083A   25351.61387715  .00000229  00000+0  74790-4 0  9990
2 43070  86.3965  37.9064 0002149  92.9894 267.1548 14.34215620418126
IRIDIUM 138             
1 43071U 17083B   25351.63924936  .00000123  00000+0  36834-4 0  9995
2 43071  86.3978  37.5632 0001774  94.2284 265.9115 14.34218033418115
IRIDIUM 116             
1 43072U 17083C   25351.60753901  .00000010  00000+0 -35869-5 0  9999
2 43072  86.3957  37.8968 0002452  95.9242 264.2233 14.34216492418147
IRIDIUM 130             
1 43073U 17083D   25351.57582591  .00000177  00000+0  56163-4 0  9993
2 43073  86.3973  38.1681 0002455  99.9448 260.2025 14.34219453418085
IRIDIUM 151             
1 43074U 17083E   25351.62022268  .00000078  00000+0  20967-4 0  9993
2 43074  86.3966  37.9457 0002234  93.7340 266.4112 14.34217859418111
IRIDIUM 134             
1 43075U 17083F   25351.58851202  .00000239  00000+0  78205-4 0  9994
2 43075  86.3967  37.9644 0002272  99.0099 261.1354 14.34215069418079
IRIDIUM 137             
1 43076U 17083G   25351.60119634  .00000020  00000+0  12095-6 0  9999
2 43076  86.3963  38.0478 0002545  87.0753 273.0734 14.34217347418143
IRIDIUM 141             
1 43077U 17083H   25351.59485263  .00000062  00000+0  15033-4 0  9991
2 43077  86.3963  37.8919 0002011  95.9666 264.1759 14.34217402418140
IRIDIUM 153             
1 43078U 17083J   25351.54702968 -.00000011  00000+0 -10916-4 0  9992
2 43078  86.3966   6.4021 0001753  97.0556 263.0839 14.34217727419242
IRIDIUM 131             
1 43079U 17083K   25351.51239886 -.00000031  00000+0 -17995-4 0  9990
2 43079  86.3965  38.1000 0002009  93.6760 266.4665 14.34217266418066
IRIDIUM 144             
1 43249U 18030A   25351.55337428 -.00000027  00000+0 -16758-4 0  9998
2 43249  86.3964   6.3329 0002258  94.4347 265.7106 14.34217187404105
IRIDIUM 149             
1 43250U 18030B   25351.55971583  .00000149  00000+0  46163-4 0  9992
2 43250  86.3966   6.2993 0002217  92.6180 267.5270 14.34218156404126
IRIDIUM 157             
1 43251U 18030C   25351.57874533  .00000265  00000+0  87516-4 0  9998
2 43251  86.3967   6.3405 0002191  87.7780 272.3667 14.34217197404105
IRIDIUM 140             
1 43252U 18030D   25351.59777198  .00000008  00000+0 -42623-5 0  9997
2 43252  86.3964   6.3455 0002172  94.8954 265.2490 14.34217147404165
IRIDIUM 145             
1 43253U 18030E   25351.58508518  .00000217  00000+0  70556-4 0  9991
2 43253  86.3967   6.3234 0002564  93.9372 266.2117 14.34216015404095
IRIDIUM 146             
1 43254U 18030F   25351.56606062  .00000227  00000+0  74023-4 0  9997
2 43254  86.3966   6.3443 0002393  92.5628 267.5842 14.34213779404101
IRIDIUM 148             
1 43255U 18030G   25351.53434665  .00000047  00000+0  97293-5 0  9998
2 43255  86.3968   6.3978 0002255  89.0281 271.1174 14.34216827404139
IRIDIUM 142             
1 43256U 18030H   25351.57240253  .00000077  00000+0  20291-4 0  9997
2 43256  86.3964   6.2776 0002589  94.2818 265.8674 14.34217619404107
IRIDIUM 150             
1 43257U 18030J   25351.61045513  .00000221  00000+0  71807-4 0  9995
2 43257  86.3968   6.3720 0002343  93.5043 266.6420 14.34215653404139
IRIDIUM 143             
1 43258U 18030K   25351.59142913  .00000245  00000+0  80314-4 0  9994
2 43258  86.3971   6.4654 0002483  93.9594 266.1885 14.34216545404064
IRIDIUM 161             
1 43478U 18047C   25351.52219524  .00000115  00000+0  28295-4 0  9998
2 43478  86.4508 164.3832 0001859  87.0915 273.0499 14.43280444398939
IRIDIUM 152             
1 43479U 18047D   25351.56414563 -.00000015  00000+0 -12496-4 0  9990
2 43479  86.3988 164.2262 0001709  91.3451 268.7940 14.34217276396454
IRIDIUM 147             
1 43480U 18047E   25351.57048747  .00000028  00000+0  28713-5 0  9992
2 43480  86.3984 164.2256 0001997  87.1385 273.0040 14.34217467396455
IRIDIUM 110             
1 43481U 18047F   25351.50705846  .00000258  00000+0  84901-4 0  9991
2 43481  86.3988 164.3390 0001555  81.1643 278.9729 14.34217608396434
IRIDIUM 162             
1 43482U 18047G   25351.51589516  .00000127  00000+0  31874-4 0  9993
2 43482  86.4507 164.2792 0001861  99.2586 260.8825 14.43278796398922
IRIDIUM 160             
1 43569U 18061A   25351.66220582  .00000263  00000+0  87021-4 0  9992
2 43569  86.3977 132.6957 0001882  87.7932 272.3479 14.34217134387357
IRIDIUM 166             
1 43570U 18061B   25351.47827017  .00000230  00000+0  75102-4 0  9990
2 43570  86.3977 132.7254 0002135  91.9703 268.1738 14.34217661387351
IRIDIUM 158             
1 43571U 18061C   25351.65586162  .00000262  00000+0  86508-4 0  9991
2 43571  86.3978 132.6612 0001860  99.5269 260.6137 14.34216040387344
IRIDIUM 165             
1 43572U 18061D   25351.47192773 -.00000011  00000+0 -10980-4 0  9998
2 43572  86.3981 132.7809 0001955  91.6758 268.4662 14.34216571387347
IRIDIUM 155             
1 43573U 18061E   25351.43387233 -.00000005  00000+0 -87612-5 0  9992
2 43573  86.3977 132.6752 0001992  99.3870 260.7551 14.34217095387300
